[Satellite]
VERSION=1.1
NAME=STARLINK-5269
NICKNAME=STARLINK-5269
TLE1=1 54161U 22141E   22321.58334491 -.01189888  00000+0 -12042-1 0  9998
TLE2=2 54161  53.2177  42.3198 0001277  68.0934  21.1901 15.67259254  1302
STATUS=0
